start=new Date('2021-12-03T00:00:00.000Z').valueOf();
sats=[{"APOAPSIS":"548.903","EPHEMERIS_TYPE":"0","FILE":"3230859","CENTER_NAME":"EARTH","TIME_SYSTEM":"UTC","MEAN_MOTION_DDOT":"0.0000000000000","INCLINATION":"53.0558","PERIAPSIS":"545.521","ARG_OF_PERICENTER":"54.6309","ELEMENT_SET_NO":"999","RCS_SIZE":"LARGE","TLE_LINE2":"2 48562  53.0558 287.6879 0002442  54.6309 305.4908 15.06400407 30312","LAUNCH_DATE":"2021-05-15","MEAN_ELEMENT_THEORY":"SGP4","OBJECT_ID":"2021-041K","REF_FRAME":"TEME","OBJECT_NAME":"STARLINK-2187","NORAD_CAT_ID":"48562","RA_OF_ASC_NODE":"287.6879","MEAN_MOTION":"15.06400407","CLASSIFICATION_TYPE":"U","ECCENTRICITY":"0.00024420","DECAY_DATE":null,"PERIOD":"95.592","COUNTRY_CODE":"US","MEAN_ANOMALY":"305.4908","TLE_LINE1":"1 48562U 21041K   21336.25985653  .00001730  00000-0  13503-3 0  9997","GP_ID":"190945598","BSTAR":"0.00013503000000","OBJECT_TYPE":"PAYLOAD","SEMIMAJOR_AXIS":"6925.347","EPOCH":"2021-12-02T06:14:11.604192","MEAN_MOTION_DOT":"0.00001730","SITE":"AFETR","REV_AT_EPOCH":"3031"},{"RA_OF_ASC_NODE":"287.6089","MEAN_MOTION":"15.06393803","REF_FRAME":"TEME","OBJECT_NAME":"STARLINK-2188","NORAD_CAT_ID":"48563","OBJECT_ID":"2021-041L","LAUNCH_DATE":"2021-05-15","MEAN_ELEMENT_THEORY":"SGP4","RCS_SIZE":"LARGE","TLE_LINE2":"2 48563  53.0551 287.6089 0002009  57.1827 302.9355 15.06393803 30310","PERIAPSIS":"545.841","ELEMENT_SET_NO":"999","ARG_OF_PERICENTER":"57.1827","INCLINATION":"53.0551","MEAN_MOTION_DDOT":"0.0000000000000","TIME_SYSTEM":"UTC","CENTER_NAME":"EARTH","FILE":"3230859","EPHEMERIS_TYPE":"0","APOAPSIS":"548.624","SEMIMAJOR_AXIS":"6925.368","MEAN_MOTION_DOT":"0.00000682","EPOCH":"2021-12-02T06:40:44.677632","REV_AT_EPOCH":"3031","SITE":"AFETR","OBJECT_TYPE":"PAYLOAD","BSTAR":"0.00006472200000","TLE_LINE1":"1 48563U 21041L   21336.27829488  .00000682  00000-0  64722-4 0  9998","GP_ID":"190945750","MEAN_ANOMALY":"302.9355","PERIOD":"95.593","COUNTRY_CODE":"US","DECAY_DATE":null,"CLASSIFICATION_TYPE":"U","ECCENTRICITY":"0.00020090"},{"MEAN_ELEMENT_THEORY":"SGP4","LAUNCH_DATE":"2021-05-15","TLE_LINE2":"2 48564  53.0566 287.6387 0001929  54.3767 305.7401 15.06395737 30311","RCS_SIZE":"LARGE","ARG_OF_PERICENTER":"54.3767","ELEMENT_SET_NO":"999","PERIAPSIS":"545.891","RA_OF_ASC_NODE":"287.6387","MEAN_MOTION":"15.06395737","NORAD_CAT_ID":"48564","OBJECT_NAME":"STARLINK-2190","REF_FRAME":"TEME","OBJECT_ID":"2021-041M","EPHEMERIS_TYPE":"0","APOAPSIS":"548.563","MEAN_MOTION_DDOT":"0.0000000000000","INCLINATION":"53.0566","TIME_SYSTEM":"UTC","CENTER_NAME":"EARTH","FILE":"3230859","BSTAR":"0.00006241100000","GP_ID":"190946207","TLE_LINE1":"1 48564U 21041M   21336.27092019  .00000648  00000-0  62411-4 0  9996","SITE":"AFETR","REV_AT_EPOCH":"3031","SEMIMAJOR_AXIS":"6925.362","EPOCH":"2021-12-02T06:30:07.504416","MEAN_MOTION_DOT":"0.00000648","OBJECT_TYPE":"PAYLOAD","ECCENTRICITY":"0.00019290","CLASSIFICATION_TYPE":"U","MEAN_ANOMALY":"305.7401","COUNTRY_CODE":"US","PERIOD":"95.592","DECAY_DATE":null},{"EPHEMERIS_TYPE":"0","APOAPSIS":"548.521","MEAN_MOTION_DDOT":"0.0000000000000","INCLINATION":"53.0561","TIME_SYSTEM":"UTC","CENTER_NAME":"EARTH","FILE":"3230859","MEAN_ELEMENT_THEORY":"SGP4","LAUNCH_DATE":"2021-05-15","TLE_LINE2":"2 48565  53.0561 287.6580 0001869  58.1292 301.9879 15.06395702 30319","RCS_SIZE":"LARGE","ARG_OF_PERICENTER":"58.1292","ELEMENT_SET_NO":"999","PERIAPSIS":"545.932","RA_OF_ASC_NODE":"287.6580","MEAN_MOTION":"15.06395702","OBJECT_NAME":"STARLINK-2191","NORAD_CAT_ID":"48565","REF_FRAME":"TEME","OBJECT_ID":"2021-041N","CLASSIFICATION_TYPE":"U","ECCENTRICITY":"0.00018690","MEAN_ANOMALY":"301.9879","COUNTRY_CODE":"US","PERIOD":"95.592","DECAY_DATE":null,"BSTAR":"0.00008633200000","GP_ID":"190946663","TLE_LINE1":"1 48565U 21041N   21336.26723717  .00001004  00000-0  86332-4 0  9997","SITE":"AFETR","REV_AT_EPOCH":"3031","MEAN_MOTION_DOT":"0.00001004","SEMIMAJOR_AXIS":"6925.362","EPOCH":"2021-12-02T06:24:49.291488","OBJECT_TYPE":"PAYLOAD"},{"EPOCH":"2021-12-02T03:48:11.932416","SEMIMAJOR_AXIS":"6925.332","MEAN_MOTION_DOT":"0.00000999","SITE":"AFETR","REV_AT_EPOCH":"3055","OBJECT_TYPE":"PAYLOAD","BSTAR":"0.00008595000000","TLE_LINE1":"1 48566U 21041P   21336.15847144  .00000999  00000-0  85950-4 0  9994","GP_ID":"190949839","MEAN_ANOMALY":"300.0365","DECAY_DATE":null,"PERIOD":"95.592","COUNTRY_CODE":"US","ECCENTRICITY":"0.00018690","CLASSIFICATION_TYPE":"U","REF_FRAME":"TEME","OBJECT_NAME":"STARLINK-2214","NORAD_CAT_ID":"48566","MEAN_MOTION":"15.06405301","RA_OF_ASC_NODE":"298.1382","OBJECT_ID":"2021-041P","MEAN_ELEMENT_THEORY":"SGP4","LAUNCH_DATE":"2021-05-15","PERIAPSIS":"545.903","ARG_OF_PERICENTER":"60.0810","ELEMENT_SET_NO":"999","RCS_SIZE":"LARGE","TLE_LINE2":"2 48566  53.0561 298.1382 0001869  60.0810 300.0365 15.06405301 30558","TIME_SYSTEM":"UTC","MEAN_MOTION_DDOT":"0.0000000000000","INCLINATION":"53.0561","FILE":"3231011","CENTER_NAME":"EARTH","APOAPSIS":"548.492","EPHEMERIS_TYPE":"0"},{"EPHEMERIS_TYPE":"0","APOAPSIS":"548.546","INCLINATION":"53.0556","MEAN_MOTION_DDOT":"0.0000000000000","TIME_SYSTEM":"UTC","CENTER_NAME":"EARTH","FILE":"3230859","LAUNCH_DATE":"2021-05-15","MEAN_ELEMENT_THEORY":"SGP4","TLE_LINE2":"2 48567  53.0556 298.0755 0001922  59.2711 300.8467 15.06399409 30154","RCS_SIZE":"LARGE","ELEMENT_SET_NO":"999","ARG_OF_PERICENTER":"59.2711","PERIAPSIS":"545.884","RA_OF_ASC_NODE":"298.0755","MEAN_MOTION":"15.06399409","OBJECT_NAME":"STARLINK-2215","NORAD_CAT_ID":"48567","REF_FRAME":"TEME","OBJECT_ID":"2021-041Q","CLASSIFICATION_TYPE":"U","ECCENTRICITY":"0.00019220","MEAN_ANOMALY":"300.8467","COUNTRY_CODE":"US","PERIOD":"95.592","DECAY_DATE":null,"BSTAR":"-0.00002321200000","GP_ID":"190946055","TLE_LINE1":"1 48567U 21041Q   21336.17048044 -.00000627  00000-0 -23212-4 0  9992","REV_AT_EPOCH":"3015","SITE":"AFETR","SEMIMAJOR_AXIS":"6925.350","MEAN_MOTION_DOT":"-0.00000627","EPOCH":"2021-12-02T04:05:29.510016","OBJECT_TYPE":"PAYLOAD"},{"MEAN_ELEMENT_THEORY":"SGP4","LAUNCH_DATE":"2021-05-15","RCS_SIZE":"MEDIUM","TLE_LINE2":"2 48568  53.0530 287.4293 0002057  64.1073 296.0128 15.06406813 30318","PERIAPSIS":"545.768","ELEMENT_SET_NO":"999","ARG_OF_PERICENTER":"64.1073","RA_OF_ASC_NODE":"287.4293","MEAN_MOTION":"15.06406813","REF_FRAME":"TEME","OBJECT_NAME":"STARLINK-2217","NORAD_CAT_ID":"48568","OBJECT_ID":"2021-041R","EPHEMERIS_TYPE":"0","APOAPSIS":"548.617","MEAN_MOTION_DDOT":"0.0000000000000","INCLINATION":"53.0530","TIME_SYSTEM":"UTC","CENTER_NAME":"EARTH","FILE":"3230859","BSTAR":"0.00014094000000","TLE_LINE1":"1 48568U 21041R   21336.31514627  .00001819  00000-0  14094-3 0  9993","GP_ID":"190946511","MEAN_MOTION_DOT":"0.00001819","SEMIMAJOR_AXIS":"6925.328","EPOCH":"2021-12-02T07:33:48.637728","SITE":"AFETR","REV_AT_EPOCH":"3031","OBJECT_TYPE":"PAYLOAD","CLASSIFICATION_TYPE":"U","ECCENTRICITY":"0.00020570","MEAN_ANOMALY":"296.0128","PERIOD":"95.592","COUNTRY_CODE":"US","DECAY_DATE":null},{"OBJECT_ID":"2021-041S","OBJECT_NAME":"STARLINK-2219","NORAD_CAT_ID":"48569","REF_FRAME":"TEME","RA_OF_ASC_NODE":"287.6278","MEAN_MOTION":"15.06404465","ELEMENT_SET_NO":"999","ARG_OF_PERICENTER":"58.9733","PERIAPSIS":"545.730","TLE_LINE2":"2 48569  53.0550 287.6278 0002122  58.9733 301.1464 15.06404465 30315","RCS_SIZE":"LARGE","MEAN_ELEMENT_THEORY":"SGP4","LAUNCH_DATE":"2021-05-15","FILE":"3230859","CENTER_NAME":"EARTH","TIME_SYSTEM":"UTC","INCLINATION":"53.0550","MEAN_MOTION_DDOT":"0.0000000000000","APOAPSIS":"548.669","EPHEMERIS_TYPE":"0","OBJECT_TYPE":"PAYLOAD","SITE":"AFETR","REV_AT_EPOCH":"3031","SEMIMAJOR_AXIS":"6925.335","EPOCH":"2021-12-02T06:35:25.201536","MEAN_MOTION_DOT":"0.00001251","GP_ID":"190946359","TLE_LINE1":"1 48569U 21041S   21336.27459724  .00001251  00000-0  10289-3 0  9997","BSTAR":"0.00010289000000","DECAY_DATE":null,"COUNTRY_CODE":"US","PERIOD":"95.592","MEAN_ANOMALY":"301.1464","CLASSIFICATION_TYPE":"U","ECCENTRICITY":"0.00021220"},{"MEAN_ELEMENT_THEORY":"SGP4","LAUNCH_DATE":"2021-05-15","PERIAPSIS":"545.893","ELEMENT_SET_NO":"999","ARG_OF_PERICENTER":"55.1035","RCS_SIZE":"LARGE","TLE_LINE2":"2 48570  53.0552 297.3665 0001889  55.1035 305.0131 15.06404124 30170","REF_FRAME":"TEME","NORAD_CAT_ID":"48570","OBJECT_NAME":"STARLINK-2220","RA_OF_ASC_NODE":"297.3665","MEAN_MOTION":"15.06404124","OBJECT_ID":"2021-041T","APOAPSIS":"548.509","EPHEMERIS_TYPE":"0","TIME_SYSTEM":"UTC","MEAN_MOTION_DDOT":"0.0000000000000","INCLINATION":"53.0552","FILE":"3230859","CENTER_NAME":"EARTH","BSTAR":"0.00008467900000","TLE_LINE1":"1 48570U 21041T   21336.32896726  .00000980  00000-0  84679-4 0  9995","GP_ID":"190945599","MEAN_MOTION_DOT":"0.00000980","SEMIMAJOR_AXIS":"6925.336","EPOCH":"2021-12-02T07:53:42.771264","SITE":"AFETR","REV_AT_EPOCH":"3017","OBJECT_TYPE":"PAYLOAD","CLASSIFICATION_TYPE":"U","ECCENTRICITY":"0.00018890","MEAN_ANOMALY":"305.0131","DECAY_DATE":null,"PERIOD":"95.592","COUNTRY_CODE":"US"},{"FILE":"3230859","CENTER_NAME":"EARTH","TIME_SYSTEM":"UTC","INCLINATION":"53.0567","MEAN_MOTION_DDOT":"0.0000000000000","APOAPSIS":"548.473","EPHEMERIS_TYPE":"0","OBJECT_ID":"2021-041U","REF_FRAME":"TEME","OBJECT_NAME":"STARLINK-2221","NORAD_CAT_ID":"48571","RA_OF_ASC_NODE":"297.6421","MEAN_MOTION":"15.06395464","PERIAPSIS":"545.982","ELEMENT_SET_NO":"999","ARG_OF_PERICENTER":"57.6617","RCS_SIZE":"LARGE","TLE_LINE2":"2 48571  53.0567 297.6421 0001799  57.6617 302.4546 15.06395464 30170","MEAN_ELEMENT_THEORY":"SGP4","LAUNCH_DATE":"2021-05-15","DECAY_DATE":null,"PERIOD":"95.592","COUNTRY_CODE":"US","MEAN_ANOMALY":"302.4546","CLASSIFICATION_TYPE":"U","ECCENTRICITY":"0.00017990","OBJECT_TYPE":"PAYLOAD","MEAN_MOTION_DOT":"0.00000565","SEMIMAJOR_AXIS":"6925.362","EPOCH":"2021-12-02T06:28:47.987904","SITE":"AFETR","REV_AT_EPOCH":"3017","TLE_LINE1":"1 48571U 21041U   21336.26999986  .00000565  00000-0  56809-4 0  9994","GP_ID":"190945751","BSTAR":"0.00005680900000"}];
